{
  "type": "FeatureCollection",
  "features": [
    {
      "type": "Feature",
      "properties": {
        "norad_id": 41859,
        "name": "GSAT0207 (GALILEO 15)",
        "group": "gnss",
        "lat": 38.988971242766965,
        "lon": -107.47406788789532,
        "alt_km": 23223.303990819317,
        "timestamp": "2025-12-02T10:50:47.515632+00:00",
        "meta_object_name": "GSAT0207 (GALILEO 15)",
        "meta_object_id": "2016-069A",
        "meta_epoch": "2025-11-30T11:31:32.297952",
        "meta_mean_motion": 1.70474248,
        "meta_eccentricity": 0.00020596,
        "meta_inclination": 55.375,
        "meta_ra_of_asc_node": 106.5899,
        "meta_arg_of_pericenter": 325.7449,
        "meta_mean_anomaly": 34.2162,
        "meta_ephemeris_type": 0,
        "meta_classification_type": "U",
        "meta_norad_cat_id": 41859,
        "meta_element_set_no": 999,
        "meta_rev_at_epoch": 5601,
        "meta_bstar": 0,
        "meta_mean_motion_dot": 4.7e-07,
        "meta_mean_motion_ddot": 0,
        "tle_line1": "1 41859U 16069A   25334.48023493  .00000047  00000+0  00000+0 0  9998",
        "tle_line2": "2 41859  55.3750 106.5899 0002059 325.7449  34.2162  1.70474248 56019"
      },
      "geometry": {
        "type": "Point",
        "coordinates": [
          -107.47406788789532,
          38.988971242766965
        ]
      }
    },
    {
      "type": "Feature",
      "properties": {
        "norad_id": 41860,
        "name": "GSAT0212 (GALILEO 16)",
        "group": "gnss",
        "lat": -31.895318636292387,
        "lon": -48.033765957292886,
        "alt_km": 23232.81784208686,
        "timestamp": "2025-12-02T10:50:47.515643+00:00",
        "meta_object_name": "GSAT0212 (GALILEO 16)",
        "meta_object_id": "2016-069B",
        "meta_epoch": "2025-12-01T12:10:10.642368",
        "meta_mean_motion": 1.70474441,
        "meta_eccentricity": 0.00022648,
        "meta_inclination": 55.3731,
        "meta_ra_of_asc_node": 106.5568,
        "meta_arg_of_pericenter": 35.1599,
        "meta_mean_anomaly": 324.8229,
        "meta_ephemeris_type": 0,
        "meta_classification_type": "U",
        "meta_norad_cat_id": 41860,
        "meta_element_set_no": 999,
        "meta_rev_at_epoch": 5628,
        "meta_bstar": 0,
        "meta_mean_motion_dot": 3.8e-07,
        "meta_mean_motion_ddot": 0,
        "tle_line1": "1 41860U 16069B   25335.50706762  .00000038  00000+0  00000+0 0  9991",
        "tle_line2": "2 41860  55.3731 106.5568 0002264  35.1599 324.8229  1.70474441 56285"
      },
      "geometry": {
        "type": "Point",
        "coordinates": [
          -48.033765957292886,
          -31.895318636292387
        ]
      }
    },
    {
      "type": "Feature",
      "properties": {
        "norad_id": 41861,
        "name": "GSAT0213 (GALILEO 17)",
        "group": "gnss",
        "lat": -4.6829905047408005,
        "lon": 103.2741089149753,
        "alt_km": 23220.908209048182,
        "timestamp": "2025-12-02T10:50:47.515654+00:00",
        "meta_object_name": "GSAT0213 (GALILEO 17)",
        "meta_object_id": "2016-069C",
        "meta_epoch": "2025-12-01T20:59:28.953888",
        "meta_mean_motion": 1.70474717,
        "meta_eccentricity": 0.0002063,
        "meta_inclination": 55.3756,
        "meta_ra_of_asc_node": 106.5542,
        "meta_arg_of_pericenter": 284.0381,
        "meta_mean_anomaly": 75.9044,
        "meta_ephemeris_type": 0,
        "meta_classification_type": "U",
        "meta_norad_cat_id": 41861,
        "meta_element_set_no": 999,
        "meta_rev_at_epoch": 5615,
        "meta_bstar": 0,
        "meta_mean_motion_dot": 3.5e-07,
        "meta_mean_motion_ddot": 0,
        "tle_line1": "1 41861U 16069C   25335.87464067  .00000035  00000+0  00000+0 0  9998",
        "tle_line2": "2 41861  55.3756 106.5542 0002063 284.0381  75.9044  1.70474717 56157"
      },
      "geometry": {
        "type": "Point",
        "coordinates": [
          103.2741089149753,
          -4.6829905047408005
        ]
      }
    },
    {
      "type": "Feature",
      "properties": {
        "norad_id": 41862,
        "name": "GSAT0214 (GALILEO 18)",
        "group": "gnss",
        "lat": -55.01790447613628,
        "lon": 7.265525262719207,
        "alt_km": 23225.28244019316,
        "timestamp": "2025-12-02T10:50:47.515664+00:00",
        "meta_object_name": "GSAT0214 (GALILEO 18)",
        "meta_object_id": "2016-069D",
        "meta_epoch": "2025-11-29T16:11:01.864032",
        "meta_mean_motion": 1.70474561,
        "meta_eccentricity": 0.00010374,
        "meta_inclination": 55.3728,
        "meta_ra_of_asc_node": 106.6081,
        "meta_arg_of_pericenter": 291.61,
        "meta_mean_anomaly": 68.3572,
        "meta_ephemeris_type": 0,
        "meta_classification_type": "U",
        "meta_norad_cat_id": 41862,
        "meta_element_set_no": 999,
        "meta_rev_at_epoch": 5624,
        "meta_bstar": 0,
        "meta_mean_motion_dot": 5.1e-07,
        "meta_mean_motion_ddot": 0,
        "tle_line1": "1 41862U 16069D   25333.67432713  .00000051  00000+0  00000+0 0  9996",
        "tle_line2": "2 41862  55.3728 106.6081 0001037 291.6100  68.3572  1.70474561 56248"
      },
      "geometry": {
        "type": "Point",
        "coordinates": [
          7.265525262719207,
          -55.01790447613628
        ]
      }
    },
    {
      "type": "Feature",
      "properties": {
        "norad_id": 42709,
        "name": "SES-15 (WAAS/PRN 133)",
        "group": "gnss",
        "lat": 0.028446885869928946,
        "lon": 105.03905005308816,
        "alt_km": 35788.12737905156,
        "timestamp": "2025-12-02T10:50:47.515692+00:00",
        "meta_object_name": "SES-15 (WAAS/PRN 133)",
        "meta_object_id": "2017-026A",
        "meta_epoch": "2025-12-01T20:45:55.897056",
        "meta_mean_motion": 1.00268136,
        "meta_eccentricity": 3.16e-05,
        "meta_inclination": 0.0202,
        "meta_ra_of_asc_node": 339.5889,
        "meta_arg_of_pericenter": 268.6363,
        "meta_mean_anomaly": 5.0585,
        "meta_ephemeris_type": 0,
        "meta_classification_type": "U",
        "meta_norad_cat_id": 42709,
        "meta_element_set_no": 999,
        "meta_rev_at_epoch": 545,
        "meta_bstar": 0,
        "meta_mean_motion_dot": 8.1e-07,
        "meta_mean_motion_ddot": 0,
        "tle_line1": "1 42709U 17026A   25335.86523029  .00000081  00000+0  00000+0 0  9998",
        "tle_line2": "2 42709   0.0202 339.5889 0000316 268.6363   5.0585  1.00268136  5451"
      },
      "geometry": {
        "type": "Point",
        "coordinates": [
          105.03905005308816,
          0.028446885869928946
        ]
      }
    },
    {
      "type": "Feature",
      "properties": {
        "norad_id": 42738,
        "name": "QZS-2 (QZSS/PRN 194)",
        "group": "gnss",
        "lat": 31.880342605441424,
        "lon": 17.68363566574374,
        "alt_km": 38311.65789133974,
        "timestamp": "2025-12-02T10:50:47.515706+00:00",
        "meta_object_name": "QZS-2 (QZSS/PRN 194)",
        "meta_object_id": "2017-028A",
        "meta_epoch": "2025-11-29T15:03:38.649888",
        "meta_mean_motion": 1.0028652,
        "meta_eccentricity": 0.07597264,
        "meta_inclination": 39.7358,
        "meta_ra_of_asc_node": 246.0747,
        "meta_arg_of_pericenter": 269.3342,
        "meta_mean_anomaly": 280.5316,
        "meta_ephemeris_type": 0,
        "meta_classification_type": "U",
        "meta_norad_cat_id": 42738,
        "meta_element_set_no": 999,
        "meta_rev_at_epoch": 562,
        "meta_bstar": 0,
        "meta_mean_motion_dot": -1.6e-06,
        "meta_mean_motion_ddot": 0,
        "tle_line1": "1 42738U 17028A   25333.62753067 -.00000160  00000+0  00000+0 0  9990",
        "tle_line2": "2 42738  39.7358 246.0747 0759726 269.3342 280.5316  1.00286520  5628"
      },
      "geometry": {
        "type": "Point",
        "coordinates": [
          17.68363566574374,
          31.880342605441424
        ]
      }
    },
    {
      "type": "Feature",
      "properties": {
        "norad_id": 42917,
        "name": "QZS-3 (QZSS/PRN 199)",
        "group": "gnss",
        "lat": 0.06730191000983324,
        "lon": 1.1623027074145975,
        "alt_km": 35789.96077518629,
        "timestamp": "2025-12-02T10:50:47.515718+00:00",
        "meta_object_name": "QZS-3 (QZSS/PRN 199)",
        "meta_object_id": "2017-048A",
        "meta_epoch": "2025-12-01T22:58:40.655136",
        "meta_mean_motion": 1.00265337,
        "meta_eccentricity": 0.000131,
        "meta_inclination": 0.0756,
        "meta_ra_of_asc_node": 225.3339,
        "meta_arg_of_pericenter": 24.6759,
        "meta_mean_anomaly": 292.6625,
        "meta_ephemeris_type": 0,
        "meta_classification_type": "U",
        "meta_norad_cat_id": 42917,
        "meta_element_set_no": 999,
        "meta_rev_at_epoch": 3028,
        "meta_bstar": 0,
        "meta_mean_motion_dot": -3.27e-06,
        "meta_mean_motion_ddot": 0,
        "tle_line1": "1 42917U 17048A   25335.95741499 -.00000327  00000+0  00000+0 0  9990",
        "tle_line2": "2 42917   0.0756 225.3339 0001310  24.6759 292.6625  1.00265337 30280"
      },
      "geometry": {
        "type": "Point",
        "coordinates": [
          1.1623027074145975,
          0.06730191000983324
        ]
      }
    }
  ]
}